*******************************************************************************
Ephemeris / WWW_USER Thu Mar  7 10:10:32 2019 Pasadena, USA      / Horizons    
*******************************************************************************
Target body name: Hayabusa 2 (spacecraft) (-37)   {source: hayabusa-2_merged}
Center body name: Earth (399)                     {source: hayabusa-2_merged}
Center-site name: Green Bank (GBT)
*******************************************************************************
Start time      : A.D. 2019-Mar-07 12:30:00.0000 UT      
Stop  time      : A.D. 2019-Mar-07 18:30:00.0000 UT      
Step-size       : 1 minutes
*******************************************************************************
Target pole/equ : No model available
Target radii    : (unavailable)                                                
Center geodetic : 280.160200,38.4330940,0.8760930 {E-lon(deg),Lat(deg),Alt(km)}
Center cylindric: 280.160200,5003.37558,3943.7589 {E-lon(deg),Dxy(km),Dz(km)}
Center pole/equ : High-precision EOP model        {East-longitude positive}
Center radii    : 6378.1 x 6378.1 x 6356.8 km     {Equator, meridian, pole}    
Target primary  : Earth
Vis. interferer : MOON (R_eq= 1737.400) km        {source: hayabusa-2_merged}
Rel. light bend : Sun, EARTH                      {source: hayabusa-2_merged}
Rel. lght bnd GM: 1.3271E+11, 3.9860E+05 km^3/s^2                              
Atmos refraction: NO (AIRLESS)
RA format       : HMS
Time format     : CAL 
RTS-only print  : NO       
EOP file        : eop.190306.p190528                                           
EOP coverage    : DATA-BASED 1962-JAN-20 TO 2019-MAR-06. PREDICTS-> 2019-MAY-27
Units conversion: 1 au= 149597870.700 km, c= 299792.458 km/s, 1 day= 86400.0 s 
Table cut-offs 1: Elevation (-90.0deg=NO ),Airmass (>38.000=NO), Daylight (NO )
Table cut-offs 2: Solar elongation (  0.0,180.0=NO ),Local Hour Angle( 0.0=NO )
Table cut-offs 3: RA/DEC angular rate (     0.0=NO )                           
*******************************************************************************************************************
 Date__(UT)__HR:MN     R.A._(ICRF/J2000.0)_DEC dRA*cosD d(DEC)/dt            delta      deldot    S-O-T /r    S-T-O
*******************************************************************************************************************
$$SOE
 2019-Mar-07 15:45 *m  21 34 13.77 -11 19 51.9 103.3288  39.09872 2.23245219811621  -7.1794916  24.5177 /L  17.2077
 2019-Mar-07 15:46 *m  21 34 13.89 -11 19 51.2 103.3286  39.09963 2.23244931894720  -7.1779891  24.5179 /L  17.2078
 2019-Mar-07 15:47 *m  21 34 14.00 -11 19 50.6 103.3285  39.10055 2.23244644038084  -7.1764864  24.5181 /L  17.2080
 2019-Mar-07 15:48 *m  21 34 14.12 -11 19 49.9 103.3284  39.10147 2.23244356241721  -7.1749835  24.5183 /L  17.2081
 2019-Mar-07 15:49 *m  21 34 14.24 -11 19 49.3 103.3283  39.10239 2.23244068505640  -7.1734803  24.5184 /L  17.2082
 2019-Mar-07 15:50 *m  21 34 14.35 -11 19 48.6 103.3282  39.10331 2.23243780829849  -7.1719771  24.5186 /L  17.2084
 2019-Mar-07 15:51 *m  21 34 14.47 -11 19 48.0 103.3281  39.10423 2.23243493214353  -7.1704736  24.5188 /L  17.2085
 2019-Mar-07 15:52 *m  21 34 14.59 -11 19 47.3 103.3281  39.10515 2.23243205659156  -7.1689701  24.5190 /L  17.2086
 2019-Mar-07 15:53 *m  21 34 14.71 -11 19 46.7 103.3280  39.10607 2.23242918164261  -7.1674665  24.5191 /L  17.2088
 2019-Mar-07 15:54 *m  21 34 14.82 -11 19 46.0 103.3280  39.10699 2.23242630729673  -7.1659629  24.5193 /L  17.2089
 2019-Mar-07 15:55 *t  21 34 14.94 -11 19 45.4 103.3280  39.10790 2.23242343355392  -7.1644592  24.5195 /L  17.2090
 2019-Mar-07 15:56 *m  21 34 15.06 -11 19 44.7 103.3280  39.10882 2.23242056041417  -7.1629556  24.5197 /L  17.2092
 2019-Mar-07 15:57 *m  21 34 15.17 -11 19 44.1 103.3280  39.10974 2.23241768787748  -7.1614520  24.5199 /L  17.2093
 2019-Mar-07 15:58 *m  21 34 15.29 -11 19 43.4 103.3281  39.11066 2.23241481594381  -7.1599485  24.5200 /L  17.2094
 2019-Mar-07 15:59 *m  21 34 15.41 -11 19 42.8 103.3281  39.11158 2.23241194461313  -7.1584451  24.5202 /L  17.2096
 2019-Mar-07 16:00 *m  21 34 15.53 -11 19 42.1 103.3282  39.11250 2.23240907388540  -7.1569418  24.5204 /L  17.2097
 2019-Mar-07 16:01 *m  21 34 15.64 -11 19 41.5 103.3283  39.11342 2.23240620376055  -7.1554387  24.5206 /L  17.2098
 2019-Mar-07 16:02 *m  21 34 15.76 -11 19 40.8 103.3284  39.11433 2.23240333423851  -7.1539358  24.5207 /L  17.2100
 2019-Mar-07 16:03 *m  21 34 15.88 -11 19 40.2 103.3285  39.11525 2.23240046531919  -7.1524331  24.5209 /L  17.2101
 2019-Mar-07 16:04 *m  21 34 15.99 -11 19 39.5 103.3286  39.11617 2.23239759700251  -7.1509307  24.5211 /L  17.2102
 2019-Mar-07 16:05 *m  21 34 16.11 -11 19 38.9 103.3288  39.11709 2.23239472928835  -7.1494285  24.5213 /L  17.2104
 2019-Mar-07 16:06 *m  21 34 16.23 -11 19 38.2 103.3290  39.11801 2.23239186217659  -7.1479267  24.5214 /L  17.2105
 2019-Mar-07 16:07 *m  21 34 16.35 -11 19 37.6 103.3291  39.11892 2.23238899566710  -7.1464252  24.5216 /L  17.2106
 2019-Mar-07 16:08 *m  21 34 16.46 -11 19 36.9 103.3293  39.11984 2.23238612975974  -7.1449241  24.5218 /L  17.2108
 2019-Mar-07 16:09 *m  21 34 16.58 -11 19 36.3 103.3295  39.12076 2.23238326445435  -7.1434234  24.5220 /L  17.2109
 2019-Mar-07 16:10 *m  21 34 16.70 -11 19 35.6 103.3298  39.12168 2.23238039975076  -7.1419231  24.5221 /L  17.2110
 2019-Mar-07 16:11 *m  21 34 16.81 -11 19 35.0 103.3300  39.12259 2.23237753564880  -7.1404233  24.5223 /L  17.2111
 2019-Mar-07 16:12 *m  21 34 16.93 -11 19 34.3 103.3303  39.12351 2.23237467214827  -7.1389240  24.5225 /L  17.2113
 2019-Mar-07 16:13 *m  21 34 17.05 -11 19 33.7 103.3305  39.12442 2.23237180924897  -7.1374252  24.5227 /L  17.2114
 2019-Mar-07 16:14 *m  21 34 17.17 -11 19 33.0 103.3308  39.12534 2.23236894695068  -7.1359269  24.5229 /L  17.2115
 2019-Mar-07 16:15 *m  21 34 17.28 -11 19 32.4 103.3311  39.12626 2.23236608525318  -7.1344292  24.5230 /L  17.2117
 2019-Mar-07 16:16 *m  21 34 17.40 -11 19 31.7 103.3314  39.12717 2.23236322415622  -7.1329322  24.5232 /L  17.2118
 2019-Mar-07 16:17 *m  21 34 17.52 -11 19 31.1 103.3318  39.12809 2.23236036365957  -7.1314358  24.5234 /L  17.2119
 2019-Mar-07 16:18 *m  21 34 17.63 -11 19 30.4 103.3321  39.12900 2.23235750376295  -7.1299400  24.5236 /L  17.2121
 2019-Mar-07 16:19 *m  21 34 17.75 -11 19 29.8 103.3325  39.12992 2.23235464446608  -7.1284450  24.5237 /L  17.2122
 2019-Mar-07 16:20 *m  21 34 17.87 -11 19 29.1 103.3329  39.13083 2.23235178576869  -7.1269506  24.5239 /L  17.2123
 2019-Mar-07 16:21 *m  21 34 17.99 -11 19 28.5 103.3333  39.13174 2.23234892767048  -7.1254571  24.5241 /L  17.2125
 2019-Mar-07 16:22 *m  21 34 18.10 -11 19 27.8 103.3337  39.13266 2.23234607017113  -7.1239643  24.5243 /L  17.2126
 2019-Mar-07 16:23 *m  21 34 18.22 -11 19 27.2 103.3341  39.13357 2.23234321327032  -7.1224724  24.5244 /L  17.2127
 2019-Mar-07 16:24 *m  21 34 18.34 -11 19 26.5 103.3345  39.13448 2.23234035696772  -7.1209812  24.5246 /L  17.2129
 2019-Mar-07 16:25 *m  21 34 18.45 -11 19 25.9 103.3350  39.13539 2.23233750126299  -7.1194910  24.5248 /L  17.2130
 2019-Mar-07 16:26 *m  21 34 18.57 -11 19 25.2 103.3355  39.13630 2.23233464615576  -7.1180017  24.5250 /L  17.2131
 2019-Mar-07 16:27 *m  21 34 18.69 -11 19 24.6 103.3360  39.13722 2.23233179164567  -7.1165133  24.5251 /L  17.2133
 2019-Mar-07 16:28 *m  21 34 18.81 -11 19 23.9 103.3365  39.13813 2.23232893773233  -7.1150259  24.5253 /L  17.2134
 2019-Mar-07 16:29 *m  21 34 18.92 -11 19 23.3 103.3370  39.13904 2.23232608441536  -7.1135394  24.5255 /L  17.2135
 2019-Mar-07 16:30 *m  21 34 19.04 -11 19 22.6 103.3375  39.13995 2.23232323169434  -7.1120540  24.5257 /L  17.2137
 2019-Mar-07 16:31 *m  21 34 19.16 -11 19 22.0 103.3381  39.14086 2.23232037956886  -7.1105697  24.5258 /L  17.2138
 2019-Mar-07 16:32 *m  21 34 19.27 -11 19 21.3 103.3386  39.14176 2.23231752803849  -7.1090864  24.5260 /L  17.2139
 2019-Mar-07 16:33 *m  21 34 19.39 -11 19 20.7 103.3392  39.14267 2.23231467710280  -7.1076042  24.5262 /L  17.2141
 2019-Mar-07 16:34 *m  21 34 19.51 -11 19 20.0 103.3398  39.14358 2.23231182676133  -7.1061232  24.5264 /L  17.2142
 2019-Mar-07 16:35 *m  21 34 19.63 -11 19 19.4 103.3404  39.14449 2.23230897701361  -7.1046434  24.5266 /L  17.2143
 2019-Mar-07 16:36 *m  21 34 19.74 -11 19 18.7 103.3410  39.14539 2.23230612785918  -7.1031647  24.5267 /L  17.2145
 2019-Mar-07 16:37 *m  21 34 19.86 -11 19 18.0 103.3417  39.14630 2.23230327929754  -7.1016873  24.5269 /L  17.2146
 2019-Mar-07 16:38 *m  21 34 19.98 -11 19 17.4 103.3423  39.14720 2.23230043132819  -7.1002111  24.5271 /L  17.2147
 2019-Mar-07 16:39 *m  21 34 20.09 -11 19 16.7 103.3430  39.14811 2.23229758395063  -7.0987363  24.5273 /L  17.2148
 2019-Mar-07 16:40 *m  21 34 20.21 -11 19 16.1 103.3437  39.14901 2.23229473716434  -7.0972627  24.5274 /L  17.2150
 2019-Mar-07 16:41 *m  21 34 20.33 -11 19 15.4 103.3444  39.14992 2.23229189096877  -7.0957905  24.5276 /L  17.2151
 2019-Mar-07 16:42 *m  21 34 20.45 -11 19 14.8 103.3451  39.15082 2.23228904536338  -7.0943197  24.5278 /L  17.2152
 2019-Mar-07 16:43 *m  21 34 20.56 -11 19 14.1 103.3458  39.15172 2.23228620034762  -7.0928502  24.5280 /L  17.2154
 2019-Mar-07 16:44 *m  21 34 20.68 -11 19 13.5 103.3466  39.15262 2.23228335592091  -7.0913822  24.5281 /L  17.2155
 2019-Mar-07 16:45 *m  21 34 20.80 -11 19 12.8 103.3473  39.15352 2.23228051208268  -7.0899157  24.5283 /L  17.2156
 2019-Mar-07 16:46 *m  21 34 20.91 -11 19 12.2 103.3481  39.15442 2.23227766883234  -7.0884507  24.5285 /L  17.2158
 2019-Mar-07 16:47 *m  21 34 21.03 -11 19 11.5 103.3489  39.15532 2.23227482616927  -7.0869871  24.5287 /L  17.2159
 2019-Mar-07 16:48 *m  21 34 21.15 -11 19 10.9 103.3497  39.15622 2.23227198409287  -7.0855252  24.5288 /L  17.2160
 2019-Mar-07 16:49 *m  21 34 21.27 -11 19 10.2 103.3505  39.15712 2.23226914260250  -7.0840648  24.5290 /L  17.2162
